IOR-W-EGNOS-PRN-126
1 28899U 05044A   23124.43262788  .00000025  00000+0  00000+0 0  9996
2 28899   3.7723  40.0207 0002996  12.0753  29.5995  1.00271890 64093
